[Satellite]
VERSION=1.1
NAME=AIM
NICKNAME=AIM
TLE1=1 31304U 07015A   20157.73685325  .00000651  00000-0  40261-4 0  9997
TLE2=2 31304  97.9085  40.0829 0006288  49.2591 310.9184 15.13589636718917
STATUS=0
